{
 "type": "FeatureCollection",
 "features": [
  {
   "type": "Feature",
   "properties": {
    "ref": "NH44",
    "name": "Grand Trunk Road (NH-44), Panipat stretch",
    "source": "OpenStreetMap contributors, ODbL 1.0",
    "date": "2026-09-20",
    "note": "one LineString per continuous stretch; OSM has gaps where NH-44 is mapped as other ways"
   },
   "geometry": {
    "type": "MultiLineString",
    "coordinates": [
     [
      [
       76.980944,
       29.348938
      ],
      [
       76.981049,
       29.348555
      ],
      [
       76.981355,
       29.34768
      ],
      [
       76.981602,
       29.346822
      ],
      [
       76.981605,
       29.346809
      ],
      [
       76.98173,
       29.346425
      ],
      [
       76.981848,
       29.34599
      ],
      [
       76.981906,
       29.345776
      ],
      [
       76.981951,
       29.345607
      ],
      [
       76.982061,
       29.345216
      ],
      [
       76.982136,
       29.344972
      ],
      [
       76.982233,
       29.344656
      ],
      [
       76.982542,
       29.343594
      ],
      [
       76.982692,
       29.343094
      ],
      [
       76.982941,
       29.342259
      ],
      [
       76.983053,
       29.341886
      ],
      [
       76.9831,
       29.341098
      ],
      [
       76.983193,
       29.34074
      ],
      [
       76.983321,
       29.340236
      ],
      [
       76.983605,
       29.339301
      ],
      [
       76.98382,
       29.33856
      ],
      [
       76.983923,
       29.338203
      ],
      [
       76.98397,
       29.338038
      ],
      [
       76.984108,
       29.337575
      ],
      [
       76.984549,
       29.336077
      ],
      [
       76.984774,
       29.334933
      ],
      [
       76.984991,
       29.333876
      ],
      [
       76.985277,
       29.33247
      ],
      [
       76.985363,
       29.331932
      ],
      [
       76.985392,
       29.331791
      ],
      [
       76.985526,
       29.331318
      ],
      [
       76.985647,
       29.330814
      ],
      [
       76.985762,
       29.330315
      ],
      [
       76.985902,
       29.329907
      ],
      [
       76.986127,
       29.329254
      ],
      [
       76.986731,
       29.327275
      ],
      [
       76.987767,
       29.324023
      ],
      [
       76.988063,
       29.323062
      ],
      [
       76.988198,
       29.32266
      ],
      [
       76.988339,
       29.322219
      ],
      [
       76.988642,
       29.321207
      ],
      [
       76.988951,
       29.320194
      ],
      [
       76.989021,
       29.319942
      ],
      [
       76.989076,
       29.319773
      ],
      [
       76.989123,
       29.319587
      ],
      [
       76.989231,
       29.319152
      ],
      [
       76.989584,
       29.317931
      ],
      [
       76.989948,
       29.316641
      ],
      [
       76.990055,
       29.316241
      ],
      [
       76.990158,
       29.315891
      ],
      [
       76.990223,
       29.315613
      ],
      [
       76.990351,
       29.315143
      ],
      [
       76.990579,
       29.31437
      ],
      [
       76.990643,
       29.314153
      ],
      [
       76.990706,
       29.31394
      ],
      [
       76.99096,
       29.313149
      ],
      [
       76.991043,
       29.312908
      ],
      [
       76.991456,
       29.311411
      ],
      [
       76.991805,
       29.310174
      ],
      [
       76.992218,
       29.30873
      ],
      [
       76.992558,
       29.307507
      ],
      [
       76.992719,
       29.306987
      ],
      [
       76.993435,
       29.304627
      ],
      [
       76.994393,
       29.301149
      ],
      [
       76.994714,
       29.300017
      ],
      [
       76.99508,
       29.298489
      ],
      [
       76.995887,
       29.29571
      ],
      [
       76.996403,
       29.293848
      ],
      [
       76.996476,
       29.293614
      ],
      [
       76.997503,
       29.290015
      ],
      [
       76.998076,
       29.288693
      ],
      [
       76.997693,
       29.290032
      ],
      [
       76.996594,
       29.29378
      ],
      [
       76.996569,
       29.293866
      ],
      [
       76.996066,
       29.295767
      ],
      [
       76.995308,
       29.298465
      ],
      [
       76.994562,
       29.301141
      ],
      [
       76.993571,
       29.304707
      ],
      [
       76.992927,
       29.30691
      ],
      [
       76.992345,
       29.308983
      ],
      [
       76.991988,
       29.310217
      ],
      [
       76.99163,
       29.311452
      ],
      [
       76.991471,
       29.311995
      ],
      [
       76.99112,
       29.313302
      ],
      [
       76.99103,
       29.313576
      ],
      [
       76.990898,
       29.313994
      ],
      [
       76.990581,
       29.315002
      ],
      [
       76.990398,
       29.315652
      ],
      [
       76.990194,
       29.316485
      ],
      [
       76.990104,
       29.316857
      ],
      [
       76.990063,
       29.316972
      ],
      [
       76.989937,
       29.317393
      ],
      [
       76.98986,
       29.317675
      ],
      [
       76.989808,
       29.317825
      ],
      [
       76.989677,
       29.318232
      ],
      [
       76.989628,
       29.318424
      ],
      [
       76.989463,
       29.318945
      ],
      [
       76.989368,
       29.319347
      ],
      [
       76.989261,
       29.319714
      ],
      [
       76.989105,
       29.320247
      ],
      [
       76.988983,
       29.320655
      ],
      [
       76.988791,
       29.321303
      ],
      [
       76.988507,
       29.322267
      ],
      [
       76.988429,
       29.322512
      ],
      [
       76.988381,
       29.322662
      ],
      [
       76.988237,
       29.323109
      ],
      [
       76.987939,
       29.324069
      ],
      [
       76.987327,
       29.326068
      ],
      [
       76.986915,
       29.327271
      ],
      [
       76.986558,
       29.328591
      ],
      [
       76.986492,
       29.328775
      ],
      [
       76.986172,
       29.329685
      ],
      [
       76.985896,
       29.330489
      ],
      [
       76.985789,
       29.330883
      ],
      [
       76.985693,
       29.331366
      ],
      [
       76.985238,
       29.333508
      ],
      [
       76.985156,
       29.334043
      ],
      [
       76.984876,
       29.335223
      ],
      [
       76.984541,
       29.336619
      ],
      [
       76.984266,
       29.337611
      ],
      [
       76.984154,
       29.338019
      ],
      [
       76.984138,
       29.338078
      ],
      [
       76.983747,
       29.339285
      ],
      [
       76.983481,
       29.340253
      ],
      [
       76.98293,
       29.341645
      ],
      [
       76.981871,
       29.345153
      ],
      [
       76.981845,
       29.345239
      ],
      [
       76.9816,
       29.345957
      ],
      [
       76.981498,
       29.346272
      ],
      [
       76.981286,
       29.347099
      ],
      [
       76.981062,
       29.347778
      ],
      [
       76.980783,
       29.34891
      ],
      [
       76.980758,
       29.34901
      ],
      [
       76.980127,
       29.351288
      ],
      [
       76.980048,
       29.351534
      ],
      [
       76.979889,
       29.352127
      ],
      [
       76.979839,
       29.352298
      ],
      [
       76.979804,
       29.352435
      ],
      [
       76.979756,
       29.352592
      ],
      [
       76.979711,
       29.352769
      ],
      [
       76.979647,
       29.353017
      ],
      [
       76.979624,
       29.353156
      ],
      [
       76.979568,
       29.353368
      ],
      [
       76.979505,
       29.353575
      ],
      [
       76.979053,
       29.355486
      ],
      [
       76.978509,
       29.357827
      ],
      [
       76.977785,
       29.360885
      ],
      [
       76.977136,
       29.363764
      ],
      [
       76.975796,
       29.369428
      ],
      [
       76.977256,
       29.363784
      ],
      [
       76.977912,
       29.360894
      ],
      [
       76.978639,
       29.357858
      ],
      [
       76.97916,
       29.355498
      ],
      [
       76.979634,
       29.3536
      ],
      [
       76.979718,
       29.353328
      ],
      [
       76.979766,
       29.353147
      ],
      [
       76.97983,
       29.352928
      ],
      [
       76.979879,
       29.352768
      ],
      [
       76.980058,
       29.352093
      ],
      [
       76.980132,
       29.351869
      ],
      [
       76.980282,
       29.351349
      ],
      [
       76.980339,
       29.350539
      ],
      [
       76.980228,
       29.350924
      ],
      [
       76.980167,
       29.351157
      ],
      [
       76.980127,
       29.351288
      ],
      [
       76.980407,
       29.350915
      ],
      [
       76.980594,
       29.350292
      ],
      [
       76.980631,
       29.35015
      ],
      [
       76.98065,
       29.350042
      ],
      [
       76.980709,
       29.349849
      ],
      [
       76.980944,
       29.348938
      ]
     ],
     [
      [
       76.969673,
       29.425394
      ],
      [
       76.96957,
       29.423694
      ],
      [
       76.969416,
       29.421316
      ],
      [
       76.969491,
       29.41868
      ],
      [
       76.969539,
       29.421326
      ],
      [
       76.969701,
       29.423701
      ],
      [
       76.969673,
       29.425394
      ],
      [
       76.969936,
       29.428944
      ],
      [
       76.970047,
       29.431562
      ],
      [
       76.970083,
       29.432331
      ],
      [
       76.970013,
       29.43279
      ],
      [
       76.969939,
       29.433496
      ],
      [
       76.96996,
       29.433907
      ],
      [
       76.969979,
       29.434298
      ],
      [
       76.970059,
       29.434585
      ],
      [
       76.970217,
       29.435152
      ],
      [
       76.970228,
       29.43539
      ],
      [
       76.970239,
       29.435627
      ],
      [
       76.970518,
       29.442473
      ],
      [
       76.970567,
       29.444467
      ],
      [
       76.970651,
       29.448212
      ],
      [
       76.970786,
       29.448202
      ],
      [
       76.970655,
       29.448409
      ],
      [
       76.970711,
       29.444469
      ],
      [
       76.970681,
       29.443018
      ],
      [
       76.970533,
       29.442992
      ],
      [
       76.970654,
       29.442446
      ],
      [
       76.970598,
       29.441083
      ],
      [
       76.970587,
       29.44091
      ],
      [
       76.970374,
       29.435377
      ],
      [
       76.970363,
       29.435137
      ],
      [
       76.97037,
       29.435078
      ],
      [
       76.97043,
       29.434572
      ],
      [
       76.970464,
       29.434283
      ],
      [
       76.970446,
       29.433897
      ],
      [
       76.970424,
       29.433491
      ],
      [
       76.969932,
       29.433364
      ],
      [
       76.969939,
       29.433496
      ],
      [
       76.970301,
       29.432788
      ],
      [
       76.970222,
       29.432334
      ],
      [
       76.970192,
       29.43154
      ],
      [
       76.970055,
       29.428943
      ],
      [
       76.969809,
       29.425412
      ]
     ],
     [
      [
       76.974146,
       29.376635
      ],
      [
       76.973778,
       29.378197
      ],
      [
       76.97335,
       29.379753
      ],
      [
       76.971548,
       29.384396
      ],
      [
       76.970961,
       29.385615
      ],
      [
       76.970823,
       29.385893
      ],
      [
       76.970653,
       29.386237
      ],
      [
       76.969711,
       29.388167
      ],
      [
       76.9695,
       29.388596
      ],
      [
       76.969229,
       29.389148
      ],
      [
       76.96907,
       29.389663
      ],
      [
       76.96894,
       29.390171
      ],
      [
       76.968861,
       29.390864
      ],
      [
       76.968746,
       29.392822
      ],
      [
       76.968727,
       29.393349
      ],
      [
       76.968741,
       29.394852
      ],
      [
       76.96873,
       29.396878
      ],
      [
       76.968682,
       29.399576
      ],
      [
       76.968628,
       29.401909
      ],
      [
       76.968808,
       29.405569
      ],
      [
       76.968949,
       29.408801
      ],
      [
       76.968931,
       29.405547
      ],
      [
       76.968765,
       29.401942
      ],
      [
       76.968802,
       29.399581
      ],
      [
       76.968858,
       29.396857
      ],
      [
       76.96887,
       29.394838
      ],
      [
       76.96885,
       29.393344
      ],
      [
       76.968873,
       29.392812
      ],
      [
       76.968989,
       29.390864
      ],
      [
       76.969079,
       29.390177
      ],
      [
       76.969185,
       29.389687
      ],
      [
       76.969363,
       29.389189
      ],
      [
       76.969829,
       29.388202
      ],
      [
       76.970774,
       29.386267
      ],
      [
       76.971091,
       29.38568
      ],
      [
       76.971825,
       29.384109
      ],
      [
       76.97347,
       29.379786
      ],
      [
       76.973909,
       29.378211
      ],
      [
       76.974268,
       29.376622
      ]
     ],
     [
      [
       76.971428,
       29.471315
      ],
      [
       76.971292,
       29.467668
      ],
      [
       76.971262,
       29.466475
      ],
      [
       76.970945,
       29.453477
      ],
      [
       76.970934,
       29.453141
      ],
      [
       76.970655,
       29.448409
      ],
      [
       76.970739,
       29.452022
      ],
      [
       76.9708,
       29.454623
      ],
      [
       76.971067,
       29.465693
      ],
      [
       76.971116,
       29.467717
      ],
      [
       76.971284,
       29.471325
      ],
      [
       76.971297,
       29.471611
      ],
      [
       76.971428,
       29.471315
      ],
      [
       76.971583,
       29.474979
      ],
      [
       76.971589,
       29.475113
      ],
      [
       76.971654,
       29.476631
      ],
      [
       76.971826,
       29.481514
      ],
      [
       76.972071,
       29.488487
      ],
      [
       76.972159,
       29.492601
      ],
      [
       76.972159,
       29.492601
      ],
      [
       76.97204,
       29.492876
      ],
      [
       76.972243,
       29.495847
      ],
      [
       76.972534,
       29.506951
      ],
      [
       76.972534,
       29.506951
      ],
      [
       76.972405,
       29.507186
      ],
      [
       76.97231,
       29.503509
      ],
      [
       76.972147,
       29.497186
      ],
      [
       76.972141,
       29.496942
      ],
      [
       76.972133,
       29.496635
      ],
      [
       76.97204,
       29.492876
      ],
      [
       76.971885,
       29.487974
      ],
      [
       76.971471,
       29.476664
      ],
      [
       76.971457,
       29.476108
      ],
      [
       76.971453,
       29.475957
      ],
      [
       76.971297,
       29.471611
      ]
     ],
     [
      [
       76.972405,
       29.507186
      ],
      [
       76.972461,
       29.510448
      ],
      [
       76.972473,
       29.511138
      ],
      [
       76.972528,
       29.514353
      ],
      [
       76.972553,
       29.515748
      ],
      [
       76.972594,
       29.519718
      ],
      [
       76.972626,
       29.522816
      ],
      [
       76.972644,
       29.524542
      ],
      [
       76.972745,
       29.530566
      ],
      [
       76.972855,
       29.527055
      ],
      [
       76.972851,
       29.526438
      ],
      [
       76.972848,
       29.526037
      ],
      [
       76.972841,
       29.525178
      ],
      [
       76.972849,
       29.525011
      ],
      [
       76.972835,
       29.524535
      ],
      [
       76.97279,
       29.521565
      ],
      [
       76.972708,
       29.516152
      ],
      [
       76.972637,
       29.512391
      ],
      [
       76.972628,
       29.511916
      ],
      [
       76.972592,
       29.510031
      ],
      [
       76.972538,
       29.507177
      ]
     ],
     [
      [
       76.968949,
       29.408801
      ],
      [
       76.969134,
       29.411654
      ],
      [
       76.969235,
       29.414461
      ],
      [
       76.969365,
       29.418683
      ],
      [
       76.969352,
       29.414465
      ],
      [
       76.969252,
       29.41163
      ],
      [
       76.969069,
       29.408791
      ]
     ],
     [
      [
       76.975796,
       29.369428
      ],
      [
       76.975317,
       29.371606
      ],
      [
       76.974146,
       29.376635
      ],
      [
       76.975444,
       29.371634
      ],
      [
       76.975903,
       29.369433
      ]
     ],
     [
      [
       76.979417,
       29.353925
      ],
      [
       76.979288,
       29.354439
      ],
      [
       76.979053,
       29.355486
      ],
      [
       76.979422,
       29.354492
      ],
      [
       76.979549,
       29.353959
      ]
     ],
     [
      [
       76.970424,
       29.433491
      ],
      [
       76.97042,
       29.433345
      ],
      [
       76.970401,
       29.433253
      ]
     ],
     [
      [
       76.9831,
       29.341098
      ],
      [
       76.98293,
       29.341645
      ],
      [
       76.983267,
       29.341143
      ]
     ],
     [
      [
       76.980282,
       29.351349
      ],
      [
       76.980301,
       29.351283
      ]
     ]
    ]
   }
  }
 ]
}